0 COSMOS 2251 DEB
1 37133U 93036BHF 13294.04761391  .00008715  00000-0  66015-2 0   989
2 37133 074.0387 081.3589 0310026 146.6488 023.0715 13.73732806176777
